"id","identifier","googlePlaceId","lat","lng","name","country","city","province","streetAndNumber","zip","businessId","addressExtra"
3591840,"916017253","ChIJXVZQ_JYDGA0RADEiuDBRj3g",39.06622202,-8.87719853,"ALDI Azambuja","PT","Azambuja","Lisboa","Est. Real","2050-281",1460040,NA
3591841,"916198418","ChIJEchTraRpJA0RJCVfffpXQNY",41.20208717,-8.69779745,"ALDI Leça da Palmeira","PT","Leça da Palmeira","Porto","Rua Dom Marcos da Cruz 50","4450-626",1460040,NA
3591842,"916148271","ChIJBapwfbdlJA0RnjWr1jfyvjc",41.12551831,-8.59657748,"ALDI Mafamude","PT","Vila Nova de Gaia","Porto","Rua de Raimundo de Carvalho 727","4400-004",1460040,"Mafamude"
3591843,"916208939","ChIJP2_PU2zxJA0RQKxFWEUIGI0",41.4367922,-8.3124869,"ALDI Creixomil","PT","Guimarães","Braga","Rua de São Miguel 1097","4835-106",1460040,"Creixomil"
3591844,"916041902","ChIJXy5wKSFLGQ0RrFO3ypZK2lc",38.58353649,-9.17069193,"ALDI Aroeira","PT","Aroeira","Setúbal","Avenida Dom Afonso Henriques","2820-026",1460040,"Lote 149"
3591845,"916043563","ChIJB8GgRD4nGQ0RJiBBoS4ZVdI",38.96424097,-8.9835785,"ALDI Vila Franca de Xira","PT","Vila Franca de Xira","Lisboa","Avenida Barranco de Cegos","2600-214",1460040,"Nº 12"
3591846,"PT001096","ChIJs2mk9N1_JA0R7qGAEaJaPSA",40.98834799,-8.53683372,"ALDI Lourosa","PT","Lourosa","Aveiro","Avenida Principal","4535-014",1460040,"EN1"
3591847,"916014694","ChIJ-6r5ok7OGg0R3vc3pMuzTbw",37.1294865229104,-8.28288495211487,"ALDI Vale Parra","PT","Guia","Faro","Estrada de Vale Rabelho, Vale Parra 1721","8200-428",1460040,"Vale Parra"
3591848,"PT001101","ChIJTWLiKP7ZGg0RH2h9k1POrFk",37.19357275,-8.43547083,"ALDI Silves","PT","Silves","Faro","Rua do Cemitério","8300-180",1460040,NA
3591849,"916039354","ChIJpcPM7JYDGA0RY-av_3kpTUo",38.9659801,-9.41016722,"ALDI Ericeira","PT","Ericeira","Lisboa","Estrada Nacional 78","2655-454",1460040,"116"
3591850,"PT001030","ChIJlcIIn0iJGA0RcJmSQAnnLrQ",39.47240106,-8.48461919,"ALDI Entroncamento","PT","Entroncamento","Santarém","Rua Bartolomeu de Gusmão 3","2330-027",1460040,NA
3591851,"PT001022","ChIJd2X46KEpHw0RK38Tg3kJCrc",38.95234359,-9.33350222,"ALDI Mafra","PT","Mafra","Lisboa","N 116 8","2640-577",1460040,"Salgados"
3591852,"PT001113","ChIJqy_WhXUjEA0RQ083nmwD4QE",37.1964435,-7.4263087,"ALDI Vila Real de Santo António","PT","Vila Real de Santo António","Faro","Avenida Municipio de Playa","8900-487",1460040,NA
3591853,"916330867","ChIJ-dYwx--pGA0RdMsxElxAgm4",39.61118,-9.06211,"ALDI Nazaré","PT","Nazaré","Leiria","Avenida de Badajoz 1","2450-284",1460040,NA
3591854,"916300416","ChIJ-V9z1LgdFw0R1Vt6sgPe44g",38.87430999,-7.17347169,"ALDI Elvas","PT","Elvas","Portalegre","Avenida António Sardinha 20","7350-091",1460040,NA
3591855,"No_identifier_PT07","ChIJAwQG3t_PHg0R8eP6Nb8hv6s",38.72135231,-9.33796353,"ALDI Abóboda","PT","São Domingos de Rana","Lisboa","Estrada Nacional 249","2785-784",1460040,"Abóboda"
3591856,"PT001010","ChIJEwS-O1_xGA0RLscJarf_z68",39.2049139,-8.6241014,"ALDI Almeirim","PT","Almeirim","Santarém","Rua Condessa da Junqueira 578","2080-069",1460040,NA
3591857,"PT001098","ChIJW0m06rXNGg0RA6F8iRFwLE0",37.09511482,-8.2247488,"ALDI Albufeira II","PT","Albufeira","Faro","Rua Manuel Teixeira Gomes","8200-269",1460040,NA
3591858,"916038097","ChIJuYp1ldlzIg0RapJbQMP2P_Y",39.76089319,-8.8202324,"ALDI Gândara dos Olivais","PT","Leiria","Leiria","Rua Estrada Figueira da Foz","2415-497",1460040,"Gândara dos Olivais, Madeiras"
3591859,"PT001091","ChIJS2l69XI7GQ0RzUFenVdRgjw",38.750692,-8.96069744,"ALDI Alcochete","PT","Alcochete","Setúbal","Avenida Sociedade Imparcial 15 de Janeiro 1898 112","2890-512",1460040,NA
3591860,"PT001083","ChIJmcA4AI81GQ0RfVVrv8VAxMg",38.66327307,-9.16215472,"ALDI Laranjeiro","PT","Almada","Setúbal","Alameda de Guerra Junqueiro 2","2814-583",1460040,"Laranjeiro"
3591861,"PT001087","ChIJV-u-_Z4ZEA0RCkfMlDeIOKs",37.18087674,-7.49771629,"ALDI Altura","PT","Altura","Faro","N125 125","8950-411",1460040,"Estrada Nacional N.º"
3591862,"PT001090","ChIJ_dy5ekdFHw0RTqjO3oAAVYQ",39.3650926,-9.37964669,"ALDI Peniche","PT","Peniche","Leiria","Rua d'Azeredo Perdigão","2520-267",1460040,NA
3591863,"916040848","ChIJD8cX-ZYDGA0RgajBBxkCdZo",38.46494775,-9.09840994,"ALDI Sesimbra","PT","Santana","Setúbal","Rua Jorge de Castilho","2970-857",1460040,NA
3591864,"PT001107","ChIJMZvRe4j7PA0R689HxTaTsoY",40.55513717,-7.24728519,"ALDI Guarda","PT","Guarda","Guarda","Rua do Facheiro 5","6300-833",1460040,NA
3591865,"PT001123","ChIJEW7KFRf3Gg0RY2glKzdszqE",37.65280729,-8.23194027,"ALDI Ourique","PT","Ourique","Beja District","Cerca de São Lourenço, Estrada de Garvão","7670-253",1460040,NA
3591866,"PT001104","ChIJeT8TP2cjPQ0RETbxEPTrP5M",40.2664756,-7.5047717,"ALDI Covilhã","PT","Covilhã","Castelo Branco","Alameda Pêro da Covilhã","6200-507",1460040,NA
3591867,"916300597","ChIJ4XZX_ahjJA0RYjUbdt6FmGo",41.13891126,-8.53229877,"ALDI São Cosme","PT","S. Cosme","Porto","Avenida 25 de Abril 222","4420-356",1460040,NA
3591868,"916300963","ChIJG6Ne2P5LJA0RuJLb9UKOQNs",41.5395669,-8.7803898,"ALDI Esposende","PT","Esposende","Braga","Rua da Anta 2","4740-574",1460040,NA
3591869,"916040160","ChIJqbYd0G8tGQ0R-jlvhXO214M",38.8078034,-9.156426,"ALDI Flamenga - Loures","PT","Loures","Lisboa","Rua Almirante Gago Coutinho 102","2660-038",1460040,"Flamenga"
3591870,"916304784","ChIJWUo3PEB7JA0R52oI4nGtm5A",41.0819076,-8.6002319,"ALDI Canelas","PT","Canelas","Porto","Rua Delfim Lima 2161","4410-226",1460040,NA
3591871,"916038278","ChIJEefylOEkHw0RftykyDWanvo",39.09193001,-9.26715604,"ALDI Torres Vedras","PT","Torres Vedras","Lisboa","Bairro de Santo António","2560-261",1460040,"Casal de Alpilhão"
3591872,"916206677","ChIJXwQyHKlFJA0R2cX4V4bXU2w",41.3631186,-8.7475144,"ALDI Vila do Conde","PT","Vila do Conde","Porto","Rua 5 de Outubro 1327","4480-666",1460040,NA
3591873,"916041082","ChIJY2AlDJ0OIg0R-sFVq_pxifE",39.7491453,-8.9256048,"ALDI Marinha Grande","PT","Marinha Grande","Leiria","Avenida Vitor Gallo 123","2430-171",1460040,NA
3591874,"916309277","ChIJkVcg15QzGQ0Rg0WTlquAdvA",38.73129086,-9.1499208,"ALDI Picoas","PT","Lisboa","Lisboa","Rua Filipe Folque 10","1050-999",1460040,NA
3591875,"916039035","ChIJoxmMPLvZGA0RrWS8GlmXacw",39.02973737,-8.98107016,"ALDI Carregado","PT","Carregado","Lisboa","Quinta de Alconchel","2580-491",1460040,NA
3591876,"916018439","ChIJqWob4ZYDGA0RaNQi7RDLVt8",38.6456416,-8.97801696,"ALDI Moita","PT","Moita","Setúbal","Rua do Povo Unido","2860-707",1460040,NA
3591877,"916042162","ChIJ36nkT5x0Ig0RIzB586q_yRM",39.73485275,-8.80747428,"ALDI Leiria","PT","Leiria","Leiria","Rua Dom José Alves Correia da Silva","2410-119",1460040,NA
3591878,"916314305","ChIJ3UevuP0vGQ0RI2HoLN_nFXg",38.87700024,-9.07162651,"ALDI Vialonga","PT","Vialonga","Lisboa","Rua Primeiro de Maio 48","2625-586",1460040,NA
3591879,"916042343","ChIJkSEsK-ilGQ0RjMg57L270lY",38.7883908,-9.14562957,"ALDI Alta de Lisboa","PT","Lisboa","Lisboa","Rua Hermínio da Palma Inácio","1750-224",1460040,"Lote 29.02"
3591880,"916294925","ChIJnYgtvuEtGQ0RttuqM6R1aSc",38.80751773,-9.09497519,"ALDI Bobadela","PT","Bobadela","Lisboa","N10","2695-066",1460040,"Estrada Nacional 10, Km"
3591881,"916040526","ChIJawopUEzWGg0RnRITSiCixfA",37.12692396,-8.45342326,"ALDI Lagoa","PT","Lagoa","Faro","R. dos Pescadores","8400-395",1460040,"Sítio das Lagoinhas - EN 124 - 1 Gramital"
3591882,"916043142","ChIJM8Ym3nvuGA0Rw3vOVT1gFqY",39.23831246,-8.69662483,"ALDI Santarém","PT","Santarém","Santarém","Rua Álvaro Cunhal 1","2005-177",1460040,NA
3591883,"916043598","ChIJMeO-hKL5Ig0RDs8ZqgMCefw",40.20591765,-8.43707725,"ALDI Santa Clara","PT","Coimbra","Coimbra","Avenida da Guarda Inglesa 41","3040-193",1460040,NA
3591884,"916323670","ChIJ20kNpS0zGQ0Rheu0sI3QYNI",38.7161062,-9.1656073,"ALDI Campo de Ourique","PT","Campo de Ourique","Lisboa","Rua Tomás da Anunciação 11","1350-321",1460040,NA
3591885,"916178457","ChIJEb2qFny9Fw0R1DWqqt6GOs4",39.28524076,-7.43420483,"ALDI Portalegre","PT","Portalegre","Portalegre","Avenida Manuel Jesus Silva Mendes 4","7300-499",1460040,NA
3591886,"916043083","ChIJ7SMmAMbbGA0RKEWV8Mycfaw",38.62019454,-9.11927577,"ALDI Amora","PT","Amora","Setúbal","Rua Almeida Garrett 30","2845-358",1460040,NA
3591887,"916041159","ChIJjV-g-JYDGA0R1U9FieAahws",38.9194913,-9.2294148,"ALDI Venda do Pinheiro","PT","Venda do Pinheiro","Lisboa","Rua Casal do Alfaiate 3","2665-565",1460040,NA
3591888,"916043252","ChIJRauiUzGdGA0R75uIu2P3vCQ",39.6318275,-8.6656452,"ALDI Fátima","PT","Fátima","Santarém","Avenida Beato Nuno 108","2495-456",1460040,NA
3591889,"916018404","ChIJkVwEDr9TBQ0Rk9FNee6ETU8",37.03189333,-7.92994967,"ALDI Faro","PT","Faro","Faro","Rua Professor Antonio Pinheiro e Rosa","8005-334",1460040,NA
3591890,"916008281","ChIJtwY745YDGA0RZAa9UEyJdLs",37.57697007,-8.66801641,"ALDI Odemira","PT","Odemira","Beja","Avenida do Sul","7630-068",1460040,NA
3591891,"916113498","ChIJyUEdRUc3Iw0R8Y674gexFPw",40.66570529,-7.89623356,"ALDI Viseu","PT","Viseu","Viseu","Estrada São João da Carreira 450","3500-188",1460040,"Avenida Prof. Reinaldo Cardoso"
3591892,"916041046","ChIJX9_fF7PFHg0REK2-JHlZfos",38.72020783,-9.41011929,"ALDI Alcabideche","PT","Alcabideche","Lisboa","Rua Carlos Anjos 982","2645-175",1460040,"Amoreira"
3591893,"916041901","ChIJuVHI2YXSHg0RX_D3qH2lE2c",38.7978166,-9.2294581,"ALDI Casal de Cambra","PT","Casal de Cambra","Lisboa","Avenida de Lisboa 39","2605-081",1460040,NA
3591894,"916037996","ChIJNRyLRveIGA0R9KSE5_zEC-M",39.47562011,-8.53283207,"ALDI Torres Novas","PT","Torres Novas","Santarém","Avenida 8 de Julho","2350-724",1460040,"Beira Rio"
3591895,"916301974","ChIJG2XticrTHg0RX9zxOMLDzQg",38.79404407,-9.19597183,"ALDI Arroja","PT","Famões","Lisboa","Avenida Acácias 23","1685-654",1460040,"Arroja"
3591896,"916043317","ChIJkyCM7nLNHg0RVAGzbfOolX0",38.77005982,-9.22470791,"ALDI Casal de São Brás","PT","Amadora","Lisboa","Avenida Álvaro Cunhal 1","2650-024",1460040,"1E"
3591897,"916043374","ChIJ5-LJBr1pJA0R5FVwE0arwe4",41.24273677,-8.7237702,"ALDI Lavra - Matosinhos","PT","Lavra","Porto","Rua Verdeiro do Carmo 230","4455-212",1460040,NA
3591898,"916299556","ChIJXQQLCw5lJA0RRxKeKa1JpUY",41.18906045,-8.58082206,"ALDI Pedrouços","PT","Pedrouços","Porto","Rua General Humberto Delgado 480","4425-653",1460040,NA
3591899,"916017060","ChIJx_a80aOzGA0RL9ZLIqQUmGo",39.40399984,-9.1484674,"ALDI Caldas da Rainha","PT","Caldas da Rainha","Leiria","Avenida Timor Lorosae","2500-934",1460040,NA
3591900,"916300839","ChIJu6FhvkdjJA0RSJCy44E-c_o",41.141728,-8.55523231,"ALDI Valbom","PT","Valbom","Porto","Rua Engenheiro Mário Giesta 30","4420-435",1460040,"Gondomar"
3591901,"916246258","ChIJC5TNqCM3Ig0R9ZQmt-IfQHA",40.1566724,-8.8590315,"ALDI Figueira da Foz","PT","Figueira da Foz","Coimbra","Rua Doutor Mário Azenha 20","3080-012",1460040,NA
3591902,"916008282","ChIJJUaCucEoGw0Rj5Z2J-TdbxI",37.1343019,-8.5474793,"ALDI Portimão","PT","Portimão","Faro","Rua Doutor Manuel Bentes","8500-311",1460040,NA
3591903,"916043306","ChIJ7dUP39l6JA0RCrTCywgGo9c",41.10896284,-8.62014642,"ALDI Vilar do Paraíso","PT","Vila Nova de Gaia","Porto","Rua José Gomes Soares 249","4405-520",1460040,"Vilar do Paraíso"
3591904,"916040956","ChIJvRdH-ZYDGA0RLtm6FMk0h6g",38.86426048,-9.06524994,"ALDI Quinta da Piedade","PT","Póvoa de Santa Iria","Lisboa","Avenida Dom Vicente Afonso Valente 26","2625-214",1460040,"Quinta da Piedade"
3591905,"916040282","ChIJx9h5pgjOHg0RqOF_GHHFQew",38.77452364,-9.28354183,"ALDI Agualva-Cacém","PT","Agualva-Cacém","Lisboa","Avenida Infante Dom Henrique","2735-115",1460040,NA
3591906,"916018277","ChIJ405erbQxGw0RfRuKbnSWLFc",37.10675025,-8.68671277,"ALDI Lagos","PT","Lagos","Faro","Rua do Cerro das Mós","8600-710",1460040,NA
3591907,"916017062","ChIJUQi3dpOzGg0RQMr_8XDQNjc",37.09279516,-8.04157586,"ALDI Almancil","PT","Almancil","Faro","Avenida 5 de Outubro","8135-120",1460040,"Vale de Éguas"
3591908,"916008284","ChIJ49xnrp4DEA0Rik1DkUeQHLU",37.11859033,-7.65980314,"ALDI Tavira","PT","Tavira","Faro","R. de São Pedro","8800-255",1460040,"Santiago"
3591909,"916042732","ChIJAd2AzamyGg0RNA6VCXmqSFM",37.03588593,-7.9606311,"ALDI Faro - Montenegro","PT","Faro","Faro","Rua Francisco Assis 1","8005-549",1460040,"Gambelas"
3591910,"916045115","ChIJOdZUb3XRHg0R5yLtiNpbAfs",38.8134946,-9.36606047,"ALDI Lourel","PT","Sintra","Lisboa","Estrada Mafra 79","2710-142",1460040,"Lourel"
3591911,"916314306","ChIJgQCLEvvBJQ0Rw35_fP2zyDQ",41.82441685,-8.8704411,"ALDI Vila Praia de Âncora","PT","Vila Praia de Âncora","Viana do Castelo","Rua António Pedro 63","4910-392",1460040,NA
3591912,"916038474","ChIJN9n8_nNBGQ0RZA8G3Y2vBDs",38.5356421,-8.86662901,"ALDI Setúbal","PT","Setúbal","Setúbal","Rua Januário dos Santos Gonçalves","2910-706",1460040,NA
3591913,"916320791","ChIJgaTILaZJGQ0R8mNVjM-q9_A",38.56161421,-9.07682098,"ALDI Fernão Ferro","PT","Quinta do Conde","Setúbal","Avenida 10 de Junho 50","2975-053",1460040,"Fernão Ferro"
3591914,"916018276","ChIJx9faBWFRGA0RPX0WsgIsmH8",38.91979893,-8.87812988,"ALDI Porto Alto","PT","Samora Correia","Santarém","Rua Padre Cruz","2135-079",1460040,"Porto Alto"
3591915,"916298956","ChIJsZn92wf_JA0Rx5w6hJfXogQ",41.5474812,-8.3977265,"ALDI Braga","PT","Braga","Braga","Avenida Dom João II 270","4715-275",1460040,NA
3591916,"916038315","ChIJc7EH_5YDGA0Rcwvupt-SuiI",37.03753776,-7.83181295,"ALDI Olhão","PT","Quelfes","Faro","Avenida Dom João VI","8700-224",1460040,NA
3591917,"916306399","ChIJ7Z7f1B6DGA0RsZCR2xcmd2o",39.65890879,-8.58280093,"ALDI Ourém","PT","Ourém","Santarém","Rua dos Álamos 55","2490-543",1460040,NA
3591918,"916042172","ChIJke43EuoyGQ0RXJ4HNc2IWow",38.768907,-9.1664596,"ALDI Telheiras","PT","Lisboa","Lisboa","Rua Frederico George 20","1600-414",1460040,NA
3591919,"916040482","ChIJ56WFrlHFHg0Ry8PhwOZXVNM",38.77420594,-9.38013264,"ALDI Quinta da Beloura","PT","Sintra","Lisboa","Alameda Fonte Velha 45","2710-694",1460040,"Quinta da Beloura"
3591920,"916043503","ChIJUQyr125BGQ0RFqa3pNQ28c8",38.57654454,-8.89135287,"ALDI Palmela","PT","Palmela","Setúbal","Avenida Visconde Tojal","2950-313",1460040,"Volta da Pedra, E.N. 379, Km35 400"
3591921,"916040322","ChIJySLKC3wuGQ0RoJSQWqwWzbo",38.83611284,-9.09453829,"ALDI Santa Iria de Azóia","PT","Santa Iria de Azoia","Lisboa","Rua Circunvalação 80-80B","2690-212",1460040,"Bairro do Estacal Novo"
3591922,"916040287","ChIJb95Sb9E1GQ0RhYUIGx3IX2o",38.64573087,-9.16688819,"ALDI Feijó","PT","Almada","Setúbal","Estrada Algazarra","2810-012",1460040,"Quinta do Gato Bravo"
3591923,"916041988","ChIJra4JEJcDGA0RRgtQFHIYONs",37.1294969,-8.1505989,"ALDI Boliqueime","PT","Boliqueime","Faro","Avenida Professor Doutor Aníbal António Cavaco Silva","8100-069",1460040,"Fonte de Boliqueime"
3591924,"916008280","ChIJu_IO45YDGA0RL1GjR-3V5rY",37.13055646,-8.34918985,"ALDI Alcantarilha","PT","Alcantarilha","Faro","N125 125","8365-138",1460040,"E.N. 125, Loteamento Industrial do Rogelo"
3591925,"916300154","ChIJ59jLhNVhJA0RLjXpbeZWyBM",41.24181849,-8.5267684,"ALDI Alfena","PT","Alfena","Porto","Rua Viveiro 42","4445-238",1460040,NA
3591926,"916054081","ChIJLyIyZS3PHg0REcECLTvzbV8",38.70062317,-9.34722268,"ALDI São Domingos de Rana","PT","São Domingos de Rana","Lisboa","Avenida 25 de Abril 101","2785-575",1460040,NA
3591927,"916328650","ChIJzSWXvZFjJA0RFAVRRlfZTEg",41.18713868,-8.48943429,"ALDI Valongo","PT","Valongo","Porto","Rua Fonseca Dias 80-84","4440-652",1460040,NA
3591928,"916038913","ChIJoS3kNfDMHg0RqWB6NGVqzk4",38.73932628,-9.22610054,"ALDI Alfragide","PT","Alfragide","Lisboa","Avenida Quinta Grande 9","2610-153",1460040,NA
3591929,"916041994","ChIJHwiqM0iQGQ0R4wyoVGXz5dw",38.76915972,-9.31366994,"ALDI Cacém","PT","Agualva-Cacém","Lisboa","Rua Ilha Terceira 3","2735-479",1460040,NA
3591930,"916043136","ChIJxY5pkHj5Ig0RhiQh75R1j4k",40.20926913,-8.40403136,"ALDI Quinta da Maia","PT","Coimbra","Coimbra","Rua Comandante Sacadura Cabral 55","3030-333",1460040,"Quinta da Maia"
3591931,"916039707","ChIJZw1iiJFJGQ0RzVab_xDrOmE",38.6075638,-9.0881415,"ALDI Casal do Marco","PT","Casal do Marco","Setúbal","Rua 1 de Dezembro 1640 475","2840-126",1460040,"Casal do Marco"
3591932,"916039311","ChIJsR1NSWnPHg0RzKyJ5o1j7bg",38.769003,-9.298053,"ALDI Monte Abraão","PT","Queluz","Lisboa","Rua Bartolomeu Dias","2745-254",1460040,"Monte Abraão"
3591933,"916042416","ChIJIdoBB-QsGQ0Rw7FGXex-WG8",38.84149523,-9.16085228,"ALDI Infantado - Loures","PT","Infantado","Lisboa","Avenida Descobertas 13","2670-383",1460040,NA
3591934,"916176825","ChIJwYIwl1ZjJA0RIpiMrgSVSs0",41.17361134,-8.54263477,"ALDI Rio Tinto","PT","Rio Tinto","Porto","Rua Serafim Pereira Coutinho 56","4435-599",1460040,NA
3591935,"916043557","ChIJeSO8Kv9mJA0R5-KYuT8_m5g",41.2342442,-8.61299449,"ALDI Maia","PT","Maia","Porto","Rua Joaquim Silva Torres 324","4470-312",1460040,NA
3591936,"916018128","ChIJ8xZ6kC5HGQ0RO_nCoLrD20o",38.61876649,-8.91608938,"ALDI Pinhal Novo","PT","Pinhal Novo","Setúbal","Rua José Afonso","2955-103",1460040,"Bairro da Cascalheira"
3591937,"916043638","ChIJl_69lx_NHg0RS-s3f9zO_WQ",38.75817227,-9.27883073,"ALDI Massamá","PT","Queluz","Lisboa","Avenida José Régio 11","2745-807",1460040,NA
3591938,"916043639","ChIJZVP3CklLOw0RLAeeL4utNLU",41.30808662,-7.73474198,"ALDI Vila Real","PT","Vila Real","Vila Real","Avenida Aureliano Barrigas 100","5000-513",1460040,"E.N. n.º 2"
3591939,"916043079","ChIJN9X6dTU2GQ0RLzC4I8_sWFs",38.65592775,-9.05998507,"ALDI Barreiro","PT","Barreiro","Setúbal","Avenida Bocage 1","2830-095",1460040,NA
3591940,"916038070","ChIJJ5G6sibQHg0RKHg60xNWhVA",38.78542119,-9.33922926,"ALDI Casais de Mem Martins","PT","Mem Martins","Lisboa","Rua Vagens","2725-466",1460040,"Casais de Mem Martins S/N"
3591941,"916040845","ChIJcRbEU4HNGg0RgodPBhdrTjU",37.09465569,-8.25048596,"ALDI Albufeira","PT","Albufeira","Faro District","Rua dos Caliços","8200-125",1460040,NA
3591942,"916114710","ChIJ7UFmSf3RGg0RB6YewuQWQnI",37.09542256,-8.3101424,"ALDI Guia","PT","Guia","Faro","Quinta de Vale Verde, E.N. 125","8200-424",1460040,NA
3591943,"916040595","ChIJA313_IE1GQ0RncP76BJ97Jw",38.6341963,-9.1452154,"ALDI Corroios","PT","Corroios","Setúbal","Rua Bento Gonçalves 21","2855-574",1460040,"Santa Marta de Corroios"
3591944,"916043373","ChIJZRSiwDBlJA0RsIxiVW2xslA",41.1267081,-8.63115,"ALDI Coimbrões - Gaia","PT","Vila Nova de Gaia","Porto","Avenida Engenheiro Ludgero Marques 542","4400-026",1460040,"Coimbrões"
3591945,"916008283","ChIJ_XSwbZrHGw0RyNqgMg30Gic",38.00764694,-8.69420019,"ALDI Santiago do Cacém","PT","Santiago do Cacém","Setúbal","Estrada do Fidalgo","7540-236",1460040,NA
3591946,"916041152","ChIJYz51VZYDGA0RQ68Gdujrf9o",38.90206065,-9.03500178,"ALDI Alverca do Ribatejo","PT","Alverca do Ribatejo","Lisboa","N10","2615-277",1460040,"Azinhaga das Fainhas, EN 10"
3599867,"PTMOT110","ChIJyVAKum3FHg0R3EyBpOGTihw",38.7372454,-9.3835715,"ALDI Manique","PT","Alcabideche","Lisboa","Estrada de Manique","2645-019",1460040,NA
3600706,"PTMOT118","ChIJe3T_1S6lGA0RpjfkhiaLfws",39.54565389,-8.97003071,"ALDI Alcobaça","PT","Alcobaça","Leiria","Avenida Associação Alcobacense de Farmingville 6","2460-089",1460040,"Fração C"
3601440,"PTMOT121","ChIJURkBImQ3GQ0RZyLASqt9G_o",38.6550584,-9.0392299,"ALDI Baixa da Banheira","PT","Baixa da Banheira","Setúbal","Rua Augusto Gil","2835-067",1460040,NA
3601449,"PTMOT125","ChIJQ4ve0k11Gg0R1jk0hjAZW0U",38.0051573,-7.8650096,"ALDI Beja","PT","Beja","Beja","Avenida Fialho de Almeida","7800-395",1460040,NA
3603057,"PTMOT105","ChIJuaQ2YIjxJA0RZfFSYgOOCEI",41.4046972,-8.3245217,"ALDI Nespereira","PT","Nespereira","Braga","Rua Padre António Pereira da Silva 94","4835-472",1460040,NA
3603119,"PTMOT120","ChIJ0Q3RxsOBIw0RZpxIl7pyKBE",40.8929165,-8.4933123,"ALDI São João da Madeira","PT","São João da Madeira","Aveiro","Avenida Doutor Renato Araújo 1976","3700-245",1460040,NA
3603270,"PTMOT117","ChIJ-W5Lr-Q3Hw0RFmhgU3U_it0",39.2371698,-9.3077798,"ALDI Lourinhã","PT","Lourinhã","Lisboa","Avenida de Angola 40","2530-114",1460040,NA
3607402,"PTMOT119","ChIJI_SoXcDJJQ0RlqCaBXZ4QD4",41.69495449,-8.84357495,"ALDI Viana do Castelo","PT","Viana do Castelo","Viana do Castelo","Rua de Monserrate","4904-860",1460040,"EN 13"
3608905,"PTMOT112","ChIJM4s_WpyBIw0RwW5pKnr9swc",40.92125128,-8.56242156,"ALDI Santa Maria da Feira","PT","Santa Maria da Feira","Aveiro","Rua Doutor Crispim Borges de Castro 38","4520-195",1460040,NA
3608906,"PTMOT114","ChIJTW_7QddJGQ0Ru8VKxAM_FsQ",38.57546828,-9.0231818,"ALDI Quinta do Anjo","PT","Quinta do Anjo","Setúbal","Av. António Xavier de Lima","2950-037",1460040,NA
3610200,"PTMOT115","ChIJLxTYNP5nJA0RAGpoTNifzfA",41.2050372,-8.6336316,"ALDI Leça do Balio","PT","Leça do Balio","Porto","Rua de Recarei","4465-728",1460040,"Lugar de Avessas"
3621275,"PT001122","ChIJhwoxBPozGQ0Rutlv6PUUoTA",38.72039665,-9.1443234,"ALDI Tivoli","PT","Lisboa","Lisboa","Rua São José 189-193","1150-322",1460040,NA
3621286,"PT001126","ChIJjV3rAuH3JA0RX-a20JIggb4",41.43281321,-8.41584519,"ALDI Joane","PT","Joane","Vila Nova de Famalicão","Av. Padre Silva Rego","4770-260",1460040,NA
3635725,"No_identifier_","ChIJGZQn0viXJA0RJrpdCrBNSvk",41.1771439,-8.15071553,"ALDI Marco de Canaveses","PT","Marco de Canaveses","Porto","Avenida Futebol Club do Porto","4630-203",1460040,NA
3635727,"No_identifier","ChIJg6Lk8UrVIg0RlEyaaB9Q2lw",40.3550083,-7.8510859,"ALDI Oliveira do Hospital","PT","Oliveira do Hospital","Coimbra","Rua Comendador Manuel Rodrigues Lagos","3400-093",1460040,NA
